start=new Date('2022-04-13T00:00:00.000Z').valueOf();
sats=[{"MEAN_MOTION_DOT":"-0.00718683","RA_OF_ASC_NODE":"225.0753","NORAD_CAT_ID":"51124","ELEMENT_SET_NO":"999","REF_FRAME":"TEME","COUNTRY_CODE":"US","MEAN_ANOMALY":"325.4462","INCLINATION":"53.2173","BSTAR":"-0.02652500000000","RCS_SIZE":"LARGE","GP_ID":"201095933","OBJECT_NAME":"STARLINK-3389","LAUNCH_DATE":"2022-01-19","TLE_LINE2":"2 51124  53.2173 225.0753 0001362  52.1261 325.4462 15.29930845  3655","EPOCH":"2022-04-12T22:00:00.999936","ARG_OF_PERICENTER":"52.1261","MEAN_MOTION":"15.29930845","SITE":"AFETR","MEAN_ELEMENT_THEORY":"SGP4","EPHEMERIS_TYPE":"0","SEMIMAJOR_AXIS":"6854.156","REV_AT_EPOCH":"365","APOAPSIS":"476.954","MEAN_MOTION_DDOT":"0.0000000000000","TIME_SYSTEM":"UTC","ECCENTRICITY":"0.00013620","CENTER_NAME":"EARTH","CLASSIFICATION_TYPE":"U","OBJECT_ID":"2022-005W","TLE_LINE1":"1 51124U 22005W   22102.91667824 -.00718683  00000-0 -26525-1 0  9998","DECAY_DATE":null,"PERIAPSIS":"475.087","OBJECT_TYPE":"PAYLOAD","PERIOD":"94.122","FILE":"3398892"},{"NORAD_CAT_ID":"51125","ELEMENT_SET_NO":"999","REF_FRAME":"TEME","MEAN_MOTION_DOT":"-0.00724562","RA_OF_ASC_NODE":"225.0716","MEAN_ANOMALY":"128.0118","INCLINATION":"53.2170","BSTAR":"-0.02810600000000","COUNTRY_CODE":"US","OBJECT_NAME":"STARLINK-3387","LAUNCH_DATE":"2022-01-19","TLE_LINE2":"2 51125  53.2170 225.0716 0001747  43.7980 128.0118 15.27936459  3664","RCS_SIZE":"LARGE","GP_ID":"201094681","ARG_OF_PERICENTER":"43.7980","MEAN_MOTION":"15.27936459","EPOCH":"2022-04-12T22:00:00.999936","MEAN_MOTION_DDOT":"0.0000000000000","EPHEMERIS_TYPE":"0","SITE":"AFETR","MEAN_ELEMENT_THEORY":"SGP4","SEMIMAJOR_AXIS":"6860.119","REV_AT_EPOCH":"366","APOAPSIS":"483.182","CLASSIFICATION_TYPE":"U","TIME_SYSTEM":"UTC","ECCENTRICITY":"0.00017470","CENTER_NAME":"EARTH","TLE_LINE1":"1 51125U 22005X   22102.91667824 -.00724562  00000-0 -28106-1 0  9999","OBJECT_ID":"2022-005X","DECAY_DATE":null,"PERIAPSIS":"480.785","FILE":"3398892","OBJECT_TYPE":"PAYLOAD","PERIOD":"94.245"},{"ECCENTRICITY":"0.00014950","CENTER_NAME":"EARTH","TIME_SYSTEM":"UTC","CLASSIFICATION_TYPE":"U","REV_AT_EPOCH":"365","SEMIMAJOR_AXIS":"6853.775","APOAPSIS":"476.664","EPHEMERIS_TYPE":"0","SITE":"AFETR","MEAN_ELEMENT_THEORY":"SGP4","MEAN_MOTION_DDOT":"0.0000000000000","PERIOD":"94.114","OBJECT_TYPE":"PAYLOAD","FILE":"3398892","TLE_LINE1":"1 51126U 22005Y   22102.91667824 -.00718123  00000-0 -26397-1 0  9996","PERIAPSIS":"474.615","DECAY_DATE":null,"OBJECT_ID":"2022-005Y","COUNTRY_CODE":"US","BSTAR":"-0.02639700000000","MEAN_ANOMALY":"347.2312","INCLINATION":"53.2172","RA_OF_ASC_NODE":"225.0744","MEAN_MOTION_DOT":"-0.00718123","REF_FRAME":"TEME","ELEMENT_SET_NO":"999","NORAD_CAT_ID":"51126","EPOCH":"2022-04-12T22:00:00.999936","MEAN_MOTION":"15.30058418","ARG_OF_PERICENTER":"43.9760","GP_ID":"201094431","RCS_SIZE":"LARGE","TLE_LINE2":"2 51126  53.2172 225.0744 0001495  43.9760 347.2312 15.30058418  3650","LAUNCH_DATE":"2022-01-19","OBJECT_NAME":"STARLINK-3386"},{"RA_OF_ASC_NODE":"225.0734","MEAN_MOTION_DOT":"-0.00717708","REF_FRAME":"TEME","NORAD_CAT_ID":"51127","ELEMENT_SET_NO":"999","COUNTRY_CODE":"US","BSTAR":"-0.02627600000000","MEAN_ANOMALY":"359.1339","INCLINATION":"53.2172","GP_ID":"201095683","RCS_SIZE":"LARGE","TLE_LINE2":"2 51127  53.2172 225.0734 0001473  45.6699 359.1339 15.30186056  3657","LAUNCH_DATE":"2022-01-19","OBJECT_NAME":"STARLINK-3370","EPOCH":"2022-04-12T22:00:00.999936","MEAN_MOTION":"15.30186056","ARG_OF_PERICENTER":"45.6699","SEMIMAJOR_AXIS":"6853.394","REV_AT_EPOCH":"365","APOAPSIS":"476.268","MEAN_ELEMENT_THEORY":"SGP4","SITE":"AFETR","EPHEMERIS_TYPE":"0","MEAN_MOTION_DDOT":"0.0000000000000","ECCENTRICITY":"0.00014730","CENTER_NAME":"EARTH","TIME_SYSTEM":"UTC","CLASSIFICATION_TYPE":"U","DECAY_DATE":null,"TLE_LINE1":"1 51127U 22005Z   22102.91667824 -.00717708  00000-0 -26276-1 0  9991","PERIAPSIS":"474.249","OBJECT_ID":"2022-005Z","PERIOD":"94.106","OBJECT_TYPE":"PAYLOAD","FILE":"3398892"},{"GP_ID":"201095433","RCS_SIZE":"LARGE","TLE_LINE2":"2 51128  53.2171 225.0717 0001763  43.5512 185.3472 15.28440880  3653","LAUNCH_DATE":"2022-01-19","OBJECT_NAME":"STARLINK-3400","EPOCH":"2022-04-12T22:00:00.999936","MEAN_MOTION":"15.28440880","ARG_OF_PERICENTER":"43.5512","RA_OF_ASC_NODE":"225.0717","MEAN_MOTION_DOT":"-0.00726993","REF_FRAME":"TEME","NORAD_CAT_ID":"51128","ELEMENT_SET_NO":"999","COUNTRY_CODE":"US","BSTAR":"-0.02777300000000","MEAN_ANOMALY":"185.3472","INCLINATION":"53.2171","PERIAPSIS":"479.265","TLE_LINE1":"1 51128U 22005AA  22102.91667824 -.00726993  00000-0 -27773-1 0  9991","DECAY_DATE":null,"OBJECT_ID":"2022-005AA","PERIOD":"94.214","OBJECT_TYPE":"PAYLOAD","FILE":"3398892","REV_AT_EPOCH":"365","SEMIMAJOR_AXIS":"6858.610","APOAPSIS":"481.684","EPHEMERIS_TYPE":"0","SITE":"AFETR","MEAN_ELEMENT_THEORY":"SGP4","MEAN_MOTION_DDOT":"0.0000000000000","ECCENTRICITY":"0.00017630","CENTER_NAME":"EARTH","TIME_SYSTEM":"UTC","CLASSIFICATION_TYPE":"U"},{"ELEMENT_SET_NO":"999","NORAD_CAT_ID":"51129","REF_FRAME":"TEME","MEAN_MOTION_DOT":"-0.00639668","RA_OF_ASC_NODE":"224.6695","INCLINATION":"53.2171","MEAN_ANOMALY":"188.3333","BSTAR":"-0.02723300000000","COUNTRY_CODE":"US","OBJECT_NAME":"STARLINK-3396","LAUNCH_DATE":"2022-01-19","TLE_LINE2":"2 51129  53.2171 224.6695 0001779  39.5322 188.3333 15.24966397  3623","RCS_SIZE":"LARGE","GP_ID":"201094181","ARG_OF_PERICENTER":"39.5322","MEAN_MOTION":"15.24966397","EPOCH":"2022-04-12T22:00:00.999936","MEAN_MOTION_DDOT":"0.0000000000000","SITE":"AFETR","EPHEMERIS_TYPE":"0","MEAN_ELEMENT_THEORY":"SGP4","APOAPSIS":"492.110","REV_AT_EPOCH":"362","SEMIMAJOR_AXIS":"6869.023","CLASSIFICATION_TYPE":"U","TIME_SYSTEM":"UTC","CENTER_NAME":"EARTH","ECCENTRICITY":"0.00017790","DECAY_DATE":null,"TLE_LINE1":"1 51129U 22005AB  22102.91667824 -.00639668  00000-0 -27233-1 0  9995","PERIAPSIS":"489.666","OBJECT_ID":"2022-005AB","FILE":"3398892","OBJECT_TYPE":"PAYLOAD","PERIOD":"94.428"},{"MEAN_MOTION_DDOT":"0.0000000000000","APOAPSIS":"482.994","SEMIMAJOR_AXIS":"6859.904","REV_AT_EPOCH":"363","SITE":"AFETR","EPHEMERIS_TYPE":"0","MEAN_ELEMENT_THEORY":"SGP4","CLASSIFICATION_TYPE":"U","CENTER_NAME":"EARTH","ECCENTRICITY":"0.00017860","TIME_SYSTEM":"UTC","TLE_LINE1":"1 51130U 22005AC  22102.91667824 -.00639509  00000-0 -24819-1 0  9998","PERIAPSIS":"480.543","DECAY_DATE":null,"OBJECT_ID":"2022-005AC","FILE":"3398892","PERIOD":"94.240","OBJECT_TYPE":"PAYLOAD","REF_FRAME":"TEME","NORAD_CAT_ID":"51130","ELEMENT_SET_NO":"999","RA_OF_ASC_NODE":"225.0737","MEAN_MOTION_DOT":"-0.00639509","BSTAR":"-0.02481900000000","INCLINATION":"53.2159","MEAN_ANOMALY":"146.4755","COUNTRY_CODE":"US","TLE_LINE2":"2 51130  53.2159 225.0737 0001786  39.5949 146.4755 15.28008392  3636","LAUNCH_DATE":"2022-01-19","OBJECT_NAME":"STARLINK-3395","GP_ID":"201094932","RCS_SIZE":"LARGE","MEAN_MOTION":"15.28008392","ARG_OF_PERICENTER":"39.5949","EPOCH":"2022-04-12T22:00:00.999936"},{"INCLINATION":"53.2171","MEAN_ANOMALY":"165.9863","BSTAR":"-0.02785200000000","COUNTRY_CODE":"US","ELEMENT_SET_NO":"999","NORAD_CAT_ID":"51131","REF_FRAME":"TEME","MEAN_MOTION_DOT":"-0.00726319","RA_OF_ASC_NODE":"225.0720","ARG_OF_PERICENTER":"48.6004","MEAN_MOTION":"15.28316824","EPOCH":"2022-04-12T22:00:00.999936","LAUNCH_DATE":"2022-01-19","OBJECT_NAME":"STARLINK-3388","TLE_LINE2":"2 51131  53.2171 225.0720 0001668  48.6004 165.9863 15.28316824  3655","RCS_SIZE":"LARGE","GP_ID":"201095183","CLASSIFICATION_TYPE":"U","TIME_SYSTEM":"UTC","CENTER_NAME":"EARTH","ECCENTRICITY":"0.00016680","MEAN_MOTION_DDOT":"0.0000000000000","MEAN_ELEMENT_THEORY":"SGP4","SITE":"AFETR","EPHEMERIS_TYPE":"0","APOAPSIS":"481.990","SEMIMAJOR_AXIS":"6858.981","REV_AT_EPOCH":"365","FILE":"3398892","OBJECT_TYPE":"PAYLOAD","PERIOD":"94.221","DECAY_DATE":null,"TLE_LINE1":"1 51131U 22005AD  22102.91667824 -.00726319  00000-0 -27852-1 0  9995","OBJECT_ID":"2022-005AD","PERIAPSIS":"479.702"},{"REF_FRAME":"TEME","ELEMENT_SET_NO":"999","NORAD_CAT_ID":"51132","RA_OF_ASC_NODE":"225.0734","MEAN_MOTION_DOT":"-0.00632587","BSTAR":"-0.02444100000000","MEAN_ANOMALY":"163.2377","INCLINATION":"53.2163","COUNTRY_CODE":"US","TLE_LINE2":"2 51132  53.2163 225.0734 0001901  37.2202 163.2377 15.28127216  3630","OBJECT_NAME":"STARLINK-3393","LAUNCH_DATE":"2022-01-19","GP_ID":"201095934","RCS_SIZE":"LARGE","MEAN_MOTION":"15.28127216","ARG_OF_PERICENTER":"37.2202","EPOCH":"2022-04-12T22:00:00.999936","MEAN_MOTION_DDOT":"0.0000000000000","REV_AT_EPOCH":"363","SEMIMAJOR_AXIS":"6859.548","APOAPSIS":"482.717","EPHEMERIS_TYPE":"0","SITE":"AFETR","MEAN_ELEMENT_THEORY":"SGP4","CLASSIFICATION_TYPE":"U","ECCENTRICITY":"0.00019010","CENTER_NAME":"EARTH","TIME_SYSTEM":"UTC","TLE_LINE1":"1 51132U 22005AE  22102.91667824 -.00632587  00000-0 -24441-1 0  9990","PERIAPSIS":"480.109","DECAY_DATE":null,"OBJECT_ID":"2022-005AE","FILE":"3398892","PERIOD":"94.233","OBJECT_TYPE":"PAYLOAD"},{"MEAN_MOTION":"15.28511837","ARG_OF_PERICENTER":"44.0190","EPOCH":"2022-04-12T22:00:00.999936","TLE_LINE2":"2 51133  53.2166 225.0731 0001609  44.0190 198.9888 15.28511837  3636","LAUNCH_DATE":"2022-01-19","OBJECT_NAME":"STARLINK-3356","GP_ID":"201094682","RCS_SIZE":"LARGE","BSTAR":"-0.02444200000000","MEAN_ANOMALY":"198.9888","INCLINATION":"53.2166","COUNTRY_CODE":"US","REF_FRAME":"TEME","ELEMENT_SET_NO":"999","NORAD_CAT_ID":"51133","RA_OF_ASC_NODE":"225.0731","MEAN_MOTION_DOT":"-0.00639594","FILE":"3398892","PERIOD":"94.209","OBJECT_TYPE":"PAYLOAD","TLE_LINE1":"1 51133U 22005AF  22102.91667824 -.00639594  00000-0 -24442-1 0  9997","DECAY_DATE":null,"PERIAPSIS":"479.159","OBJECT_ID":"2022-005AF","CLASSIFICATION_TYPE":"U","ECCENTRICITY":"0.00016090","CENTER_NAME":"EARTH","TIME_SYSTEM":"UTC","MEAN_MOTION_DDOT":"0.0000000000000","SEMIMAJOR_AXIS":"6858.397","REV_AT_EPOCH":"363","APOAPSIS":"481.366","MEAN_ELEMENT_THEORY":"SGP4","SITE":"AFETR","EPHEMERIS_TYPE":"0"}];
